ONEWEB-0637             
1 56078U 23043AJ  26013.20110704  .00000156  00000+0  38067-3 0  9993
2 56078  87.9004 290.1542 0001852  80.9929 279.1411 13.15545886136058
ONEWEB-0647             
1 56079U 23043AK  26013.19635654  .00000070  00000+0  15130-3 0  9999
2 56079  87.9007 290.1682 0001687  69.2861 290.8450 13.15549388136041
ONEWEB-0651             
1 56080U 23043AL  26013.19160728  .00000032  00000+0  50046-4 0  9990
2 56080  87.9007 290.1630 0001910  75.8834 284.2509 13.15549154137244
ONEWEB-0718             
1 56081U 23043AM  26013.18683725 -.00000040  00000+0 -14109-3 0  9997
2 56081  87.9011 290.1445 0001352  93.3791 266.7494 13.15547732136057
ONEWEB-0561             
1 56710U 23068A   26013.19938678  .00000116  00000+0  25273-3 0  9990
2 56710  87.9220 305.3662 0002052  67.0305 293.1045 13.20772609129041
ONEWEB-0668             
1 56711U 23068B   26013.16713139  .00000042  00000+0  76039-4 0  9996
2 56711  87.9042 259.6252 0001580  97.9183 262.2128 13.16594408131384
ONEWEB-0676             
1 56712U 23068C   26013.17503808  .00000027  00000+0  37803-4 0  9997
2 56712  87.9032 259.6422 0001809  74.1530 285.9801 13.16593468131307
ONEWEB-0677             
1 56713U 23068D   26013.18833480  .00000033  00000+0  49346-4 0  9993
2 56713  87.9233 305.3552 0001864  79.2452 280.8892 13.20771867129345
ONEWEB-0678             
1 56714U 23068E   26013.15515693  .00000079  00000+0  17508-3 0  9998
2 56714  87.9015 290.1284 0001583  62.8506 297.2786 13.15549416128905
ONEWEB-0679             
1 56715U 23068F   26013.20988410  .00000164  00000+0  39607-3 0  9995
2 56715  87.9035 259.6175 0001955  89.4198 270.7156 13.16594088131336
ONEWEB-0680             
1 56716U 23068G   26013.14613568  .00000143  00000+0  31397-3 0  9993
2 56716  87.9225 274.8887 0001803  95.7528 264.3811 13.21825198130618
ONEWEB-0681             
1 56717U 23068H   26013.20124998 -.00000101  00000+0 -27648-3 0  9995
2 56717  87.9213 274.8905 0002575  66.8137 293.3268 13.21825084130611
ONEWEB-0682             
1 56718U 23068J   26013.18129395 -.00000044  00000+0 -14978-3 0  9997
2 56718  87.9007 290.1351 0001816  90.7589 269.3750 13.15550713129077
ONEWEB-0683             
1 56719U 23068K   26013.20269489  .00000168  00000+0  41244-3 0  9991
2 56719  87.9012 290.1181 0001616  83.8027 276.3287 13.15549064129040
ONEWEB-0684             
1 56720U 23068L   26013.21059435  .00000269  00000+0  68179-3 0  9990
2 56720  87.9013 290.1103 0000952  14.8812 345.2347 13.15550375128875
ONEWEB-0686             
1 56721U 23068M   26013.17646904  .00000023  00000+0  27183-4 0  9998
2 56721  87.9024 259.6738 0001217  87.2823 272.8448 13.17179929131317
ONEWEB-0694             
1 56722U 23068N   26013.17661432 -.00000008  00000+0 -54061-4 0  9992
2 56722  87.9045 259.6060 0001571  94.8392 265.2918 13.16593023131375
