[{"OBJECT_NAME":"ONEWEB-0637","OBJECT_ID":"2023-043AJ","EPOCH":"2026-01-13T04:49:35.648256","MEAN_MOTION":13.15545886,"ECCENTRICITY":0.00018525,"INCLINATION":87.9004,"RA_OF_ASC_NODE":290.1542,"ARG_OF_PERICENTER":80.9929,"MEAN_ANOMALY":279.1411,"EPHEMERIS_TYPE":0,"CLASSIFICATION_TYPE":"U","NORAD_CAT_ID":56078,"ELEMENT_SET_NO":999,"REV_AT_EPOCH":13605,"BSTAR":0.0003806719,"MEAN_MOTION_DOT":1.56e-6,"MEAN_MOTION_DDOT":0},{"OBJECT_NAME":"ONEWEB-0647","OBJECT_ID":"2023-043AK","EPOCH":"2026-01-13T04:42:45.205056","MEAN_MOTION":13.15549388,"ECCENTRICITY":0.00016878,"INCLINATION":87.9007,"RA_OF_ASC_NODE":290.1682,"ARG_OF_PERICENTER":69.2861,"MEAN_ANOMALY":290.845,"EPHEMERIS_TYPE":0,"CLASSIFICATION_TYPE":"U","NORAD_CAT_ID":56079,"ELEMENT_SET_NO":999,"REV_AT_EPOCH":13604,"BSTAR":0.00015130089,"MEAN_MOTION_DOT":7.0e-7,"MEAN_MOTION_DDOT":0},{"OBJECT_NAME":"ONEWEB-0651","OBJECT_ID":"2023-043AL","EPOCH":"2026-01-13T04:35:54.868992","MEAN_MOTION":13.15549154,"ECCENTRICITY":0.00019106,"INCLINATION":87.9007,"RA_OF_ASC_NODE":290.163,"ARG_OF_PERICENTER":75.8834,"MEAN_ANOMALY":284.2509,"EPHEMERIS_TYPE":0,"CLASSIFICATION_TYPE":"U","NORAD_CAT_ID":56080,"ELEMENT_SET_NO":999,"REV_AT_EPOCH":13724,"BSTAR":5.0045875e-5,"MEAN_MOTION_DOT":3.2e-7,"MEAN_MOTION_DDOT":0},{"OBJECT_NAME":"ONEWEB-0718","OBJECT_ID":"2023-043AM","EPOCH":"2026-01-13T04:29:02.738400","MEAN_MOTION":13.15547732,"ECCENTRICITY":0.00013524,"INCLINATION":87.9011,"RA_OF_ASC_NODE":290.1445,"ARG_OF_PERICENTER":93.3791,"MEAN_ANOMALY":266.7494,"EPHEMERIS_TYPE":0,"CLASSIFICATION_TYPE":"U","NORAD_CAT_ID":56081,"ELEMENT_SET_NO":999,"REV_AT_EPOCH":13605,"BSTAR":-0.00014109352,"MEAN_MOTION_DOT":-4.0e-7,"MEAN_MOTION_DDOT":0},{"OBJECT_NAME":"ONEWEB-0561","OBJECT_ID":"2023-068A","EPOCH":"2026-01-13T04:47:07.017792","MEAN_MOTION":13.20772609,"ECCENTRICITY":0.0002052,"INCLINATION":87.922,"RA_OF_ASC_NODE":305.3662,"ARG_OF_PERICENTER":67.0305,"MEAN_ANOMALY":293.1045,"EPHEMERIS_TYPE":0,"CLASSIFICATION_TYPE":"U","NORAD_CAT_ID":56710,"ELEMENT_SET_NO":999,"REV_AT_EPOCH":12904,"BSTAR":0.00025273288,"MEAN_MOTION_DOT":1.16e-6,"MEAN_MOTION_DDOT":0},{"OBJECT_NAME":"ONEWEB-0668","OBJECT_ID":"2023-068B","EPOCH":"2026-01-13T04:00:40.152096","MEAN_MOTION":13.16594408,"ECCENTRICITY":0.000158,"INCLINATION":87.9042,"RA_OF_ASC_NODE":259.6252,"ARG_OF_PERICENTER":97.9183,"MEAN_ANOMALY":262.2128,"EPHEMERIS_TYPE":0,"CLASSIFICATION_TYPE":"U","NORAD_CAT_ID":56711,"ELEMENT_SET_NO":999,"REV_AT_EPOCH":13138,"BSTAR":7.6038741e-5,"MEAN_MOTION_DOT":4.2e-7,"MEAN_MOTION_DDOT":0},{"OBJECT_NAME":"ONEWEB-0676","OBJECT_ID":"2023-068C","EPOCH":"2026-01-13T04:12:03.290112","MEAN_MOTION":13.16593468,"ECCENTRICITY":0.00018098,"INCLINATION":87.9032,"RA_OF_ASC_NODE":259.6422,"ARG_OF_PERICENTER":74.153,"MEAN_ANOMALY":285.9801,"EPHEMERIS_TYPE":0,"CLASSIFICATION_TYPE":"U","NORAD_CAT_ID":56712,"ELEMENT_SET_NO":999,"REV_AT_EPOCH":13130,"BSTAR":3.7803063e-5,"MEAN_MOTION_DOT":2.7e-7,"MEAN_MOTION_DDOT":0},{"OBJECT_NAME":"ONEWEB-0677","OBJECT_ID":"2023-068D","EPOCH":"2026-01-13T04:31:12.126720","MEAN_MOTION":13.20771867,"ECCENTRICITY":0.00018642,"INCLINATION":87.9233,"RA_OF_ASC_NODE":305.3552,"ARG_OF_PERICENTER":79.2452,"MEAN_ANOMALY":280.8892,"EPHEMERIS_TYPE":0,"CLASSIFICATION_TYPE":"U","NORAD_CAT_ID":56713,"ELEMENT_SET_NO":999,"REV_AT_EPOCH":12934,"BSTAR":4.9346059e-5,"MEAN_MOTION_DOT":3.3e-7,"MEAN_MOTION_DDOT":0},{"OBJECT_NAME":"ONEWEB-0678","OBJECT_ID":"2023-068E","EPOCH":"2026-01-13T03:43:25.558752","MEAN_MOTION":13.15549416,"ECCENTRICITY":0.00015836,"INCLINATION":87.9015,"RA_OF_ASC_NODE":290.1284,"ARG_OF_PERICENTER":62.8506,"MEAN_ANOMALY":297.2786,"EPHEMERIS_TYPE":0,"CLASSIFICATION_TYPE":"U","NORAD_CAT_ID":56714,"ELEMENT_SET_NO":999,"REV_AT_EPOCH":12890,"BSTAR":0.00017507687,"MEAN_MOTION_DOT":7.9e-7,"MEAN_MOTION_DDOT":0},{"OBJECT_NAME":"ONEWEB-0679","OBJECT_ID":"2023-068F","EPOCH":"2026-01-13T05:02:13.986240","MEAN_MOTION":13.16594088,"ECCENTRICITY":0.00019552,"INCLINATION":87.9035,"RA_OF_ASC_NODE":259.6175,"ARG_OF_PERICENTER":89.4198,"MEAN_ANOMALY":270.7156,"EPHEMERIS_TYPE":0,"CLASSIFICATION_TYPE":"U","NORAD_CAT_ID":56715,"ELEMENT_SET_NO":999,"REV_AT_EPOCH":13133,"BSTAR":0.00039607486,"MEAN_MOTION_DOT":1.64e-6,"MEAN_MOTION_DDOT":0},{"OBJECT_NAME":"ONEWEB-0680","OBJECT_ID":"2023-068G","EPOCH":"2026-01-13T03:30:26.122752","MEAN_MOTION":13.21825198,"ECCENTRICITY":0.00018038,"INCLINATION":87.9225,"RA_OF_ASC_NODE":274.8887,"ARG_OF_PERICENTER":95.7528,"MEAN_ANOMALY":264.3811,"EPHEMERIS_TYPE":0,"CLASSIFICATION_TYPE":"U","NORAD_CAT_ID":56716,"ELEMENT_SET_NO":999,"REV_AT_EPOCH":13061,"BSTAR":0.00031397492,"MEAN_MOTION_DOT":1.43e-6,"MEAN_MOTION_DDOT":0},{"OBJECT_NAME":"ONEWEB-0681","OBJECT_ID":"2023-068H","EPOCH":"2026-01-13T04:49:47.998272","MEAN_MOTION":13.21825084,"ECCENTRICITY":0.00025751,"INCLINATION":87.9213,"RA_OF_ASC_NODE":274.8905,"ARG_OF_PERICENTER":66.8137,"MEAN_ANOMALY":293.3268,"EPHEMERIS_TYPE":0,"CLASSIFICATION_TYPE":"U","NORAD_CAT_ID":56717,"ELEMENT_SET_NO":999,"REV_AT_EPOCH":13061,"BSTAR":-0.00027648495,"MEAN_MOTION_DOT":-1.01e-6,"MEAN_MOTION_DDOT":0},{"OBJECT_NAME":"ONEWEB-0682","OBJECT_ID":"2023-068J","EPOCH":"2026-01-13T04:21:03.797280","MEAN_MOTION":13.15550713,"ECCENTRICITY":0.00018163,"INCLINATION":87.9007,"RA_OF_ASC_NODE":290.1351,"ARG_OF_PERICENTER":90.7589,"MEAN_ANOMALY":269.375,"EPHEMERIS_TYPE":0,"CLASSIFICATION_TYPE":"U","NORAD_CAT_ID":56718,"ELEMENT_SET_NO":999,"REV_AT_EPOCH":12907,"BSTAR":-0.00014978242,"MEAN_MOTION_DOT":-4.4e-7,"MEAN_MOTION_DDOT":0},{"OBJECT_NAME":"ONEWEB-0683","OBJECT_ID":"2023-068K","EPOCH":"2026-01-13T04:51:52.838496","MEAN_MOTION":13.15549064,"ECCENTRICITY":0.0001616,"INCLINATION":87.9012,"RA_OF_ASC_NODE":290.1181,"ARG_OF_PERICENTER":83.8027,"MEAN_ANOMALY":276.3287,"EPHEMERIS_TYPE":0,"CLASSIFICATION_TYPE":"U","NORAD_CAT_ID":56719,"ELEMENT_SET_NO":999,"REV_AT_EPOCH":12904,"BSTAR":0.00041244383,"MEAN_MOTION_DOT":1.68e-6,"MEAN_MOTION_DDOT":0},{"OBJECT_NAME":"ONEWEB-0684","OBJECT_ID":"2023-068L","EPOCH":"2026-01-13T05:03:15.351840","MEAN_MOTION":13.15550375,"ECCENTRICITY":9.525e-5,"INCLINATION":87.9013,"RA_OF_ASC_NODE":290.1103,"ARG_OF_PERICENTER":14.8812,"MEAN_ANOMALY":345.2347,"EPHEMERIS_TYPE":0,"CLASSIFICATION_TYPE":"U","NORAD_CAT_ID":56720,"ELEMENT_SET_NO":999,"REV_AT_EPOCH":12887,"BSTAR":0.00068179331,"MEAN_MOTION_DOT":2.69e-6,"MEAN_MOTION_DDOT":0},{"OBJECT_NAME":"ONEWEB-0686","OBJECT_ID":"2023-068M","EPOCH":"2026-01-13T04:14:06.925056","MEAN_MOTION":13.17179929,"ECCENTRICITY":0.00012173,"INCLINATION":87.9024,"RA_OF_ASC_NODE":259.6738,"ARG_OF_PERICENTER":87.2823,"MEAN_ANOMALY":272.8448,"EPHEMERIS_TYPE":0,"CLASSIFICATION_TYPE":"U","NORAD_CAT_ID":56721,"ELEMENT_SET_NO":999,"REV_AT_EPOCH":13131,"BSTAR":2.7183171e-5,"MEAN_MOTION_DOT":2.3e-7,"MEAN_MOTION_DDOT":0},{"OBJECT_NAME":"ONEWEB-0694","OBJECT_ID":"2023-068N","EPOCH":"2026-01-13T04:14:19.477248","MEAN_MOTION":13.16593023,"ECCENTRICITY":0.00015712,"INCLINATION":87.9045,"RA_OF_ASC_NODE":259.606,"ARG_OF_PERICENTER":94.8392,"MEAN_ANOMALY":265.2918,"EPHEMERIS_TYPE":0,"CLASSIFICATION_TYPE":"U","NORAD_CAT_ID":56722,"ELEMENT_SET_NO":999,"REV_AT_EPOCH":13137,"BSTAR":-5.4061337e-5,"MEAN_MOTION_DOT":-8.0e-8,"MEAN_MOTION_DDOT":0}]
